P/2015 TP200 (LINEAR),e,8.7796,7.0124,82.5253,7.270443,0.0502762,0.53530647,91.1385,10/14.0/2021,2000,g 11.0,4.0
# From MPC115881
C/2015 V1 (PANSTARRS),e,139.2263,197.1632,179.6293,2047,0.0000106,0.99791269,0.0000,12/16.5456/2017,2000,g  6.5,4.0
# From MPC112390
C/2015 V2 (Johnson),h,06/11.4773/2017,49.8296,69.9508,164.9973,1.001811,1.646800,2000,5.0,4.0
# From MPC115881
C/2015 VL62 (Lemmon-Yeung-PANSTARRS),h,08/27.8775/2017,165.8197,95.1391,128.8901,1.001482,2.721870,2000,8.0,4.0
# From MPC101098
P/2015 W2 (Catalina),e,11.6073,294.2287,117.4853,7.293036,0.0500428,0.63443853,110.3091,10/14.0/2021,2000,g 13.0,4.0
# From MPEC 2021-N06
P/2015 X1 (PANSTARRS),e,12.1519,161.7620,218.8674,3.634356,0.1422535,0.41918384,313.3432,10/14.0/2021,2000,g 16.0,4.0
# From MPEC 2021-P47
C/2015 XY1 (Lemmon),h,04/26.7167/2018,148.8528,281.6078,196.1775,1.001461,7.922526,2000,5.5,4.0
# From MPC 97498
P/2015 X3 (PANSTARRS),e,24.3941,77.2930,306.6829,5.007423,0.0879595,0.43943230,198.5666,10/14.0/2021,2000,g 15.0,4.0
# From MPC119995
C/2015 X5 (PANSTARRS),h,12/28.4317/2017,124.3093,122.3394,27.6004,1.000694,6.794987,2000,7.5,4.0
# From MPC115881
P/2015 X6 (PANSTARRS),e,4.5645,106.9447,329.8316,2.753359,0.2157296,0.17272952,78.0859,10/14.0/2021,2000,g 16.0,4.0
# From MPEC 2021-P47
C/2016 A1 (PANSTARRS),h,11/21.8346/2017,121.2060,128.2030,10.1723,1.000410,5.319288,2000,6.0,4.0
# From MPC100282
P/2016 A2 (Christensen),e,26.4036,291.6175,141.3772,4.752686,0.0951252,0.27055189,220.0137,10/14.0/2021,2000,g 11.5,4.0
# From MPC115881
P/2016 A3 (PANSTARRS),e,8.5101,187.2424,341.0129,7.886886,0.0444985,0.38642538,72.5364,10/14.0/2021,2000,g 10.0,4.0
# From MPC102098
P/2016 A7 (PANSTARRS),e,16.6096,221.4958,352.6014,5.033459,0.0872779,0.56465303,179.8144,10/14.0/2021,2000,g 16.0,4.0
# From MPC107048
C/2016 B1 (NEOWISE),e,50.4262,232.0469,8.6816,430.1967,0.0001105,0.99251738,0.0000,12/04.0754/2016,2000,g  9.5,4.0
# From MPC109143
P/2016 BA14 (PANSTARRS),e,18.8938,180.5267,351.8880,3.024775,0.1873547,0.66515148,22.2352,10/14.0/2021,2000,g 21.0,4.0
# From MPC110494
C/2016 E1 (PANSTARRS),h,06/04.3022/2017,131.8774,233.1088,47.4746,1.006444,8.176663,2000,6.5,4.0
# From MPEC 2021-P47
P/2016 G1 (PANSTARRS),e,10.9709,204.0221,111.1407,2.582674,0.2374651,0.21108594,48.9283,10/14.0/2021,2000,g 14.0,4.0
# From MPEC 2017-D91
P/2016 J1-A (PANSTARRS),e,14.3283,199.8106,46.9779,3.172578,0.1744157,0.22785505,337.3848,10/14.0/2021,2000,g 16.5,4.0
# From MPEC 2017-A77
P/2016 J1-B (PANSTARRS),e,14.3311,199.8155,46.8689,3.172207,0.1744463,0.22770555,337.5188,10/14.0/2021,2000,g 17.0,4.0
# From MPC119995
C/2016 M1 (PANSTARRS),e,90.9591,92.2269,209.9266,29566,0.0000002,0.99992513,0.0000,08/10.5200/2018,2000,g  5.0,4.0
# From MPEC 2021-N06
C/2016 N4 (MASTER),e,72.6449,353.9908,55.9451,3619,0.0000045,0.99911666,0.0000,09/16.9978/2017,2000,g  8.5,4.0
# From MPEC 2021-P47
C/2016 N6 (PANSTARRS),e,105.8427,298.9774,162.6655,1203,0.0000236,0.99778718,0.0000,07/17.8660/2018,2000,g  7.0,4.0
# From MPC102099
P/2016 P1 (PANSTARRS),e,24.4562,319.5652,270.1144,3.193300,0.1727208,0.28905285,21.7081,10/14.0/2021,2000,g 15.0,4.0
# From MPC102099
C/2016 P4 (PANSTARRS),e,29.8803,320.7240,356.2993,427.1226,0.0001117,0.98617985,0.0000,10/18.9902/2016,2000,g 10.5,4.0
# From MPEC 2021-TD0
C/2016 Q2 (PANSTARRS),h,05/12.0282/2021,109.3883,322.2955,84.5382,1.001286,7.081857,2000,6.0,4.0
# From MPC102955
C/2016 Q4 (Kowalski),e,7.2535,271.2947,99.5058,16.96782,0.0141015,0.58223892,19.0926,10/14.0/2021,2000,g  7.0,4.0
# From MPEC 2021-N06
C/2016 R2 (PANSTARRS),e,58.2586,80.5464,33.1273,486.7288,0.0000918,0.99465749,0.0000,05/08.9833/2018,2000,g  7.0,4.0
# From MPC102099
C/2016 R3 (Borisov),e,53.0184,78.8732,118.1292,195.9788,0.0003592,0.99767926,0.0000,10/09.6232/2016,2000,g 18.0,4.0
# From MPC109144
P/2016 R4 (Gibbs),e,10.8768,168.2631,174.0635,5.331677,0.0800587,0.47643530,152.8345,10/14.0/2021,2000,g 12.5,4.0
# From MPC105543
P/2016 S1 (PANSTARRS),e,94.6977,227.5853,273.2806,8.278089,0.0413818,0.70995901,69.2347,10/14.0/2021,2000,g 12.0,4.0
# From MPC105238
C/2016 T1 (Matheny),e,129.8513,56.3863,137.5238,126.0853,0.0006962,0.98171120,0.0000,02/01.6061/2017,2000,g 14.5,4.0
# From MPC107685
C/2016 T2 (Matheny),e,81.4108,339.1973,92.1703,99.40806,0.0009944,0.98087897,0.0000,12/29.8357/2016,2000,g 14.5,4.0
# From MPC110082
C/2016 T3 (PANSTARRS),e,22.6920,271.7055,194.5991,129.6457,0.0006677,0.97960738,0.0000,09/06.4564/2017,2000,g 10.5,4.0
# From MPC103847
C/2016 U1 (NEOWISE),h,01/13.5189/2017,46.2099,61.6415,162.7905,1.000399,0.324731,2000,17.0,4.0
# From MPC106345
C/2016 VZ18 (PANSTARRS),e,23.9942,98.9254,36.3708,158.9283,0.0004919,0.99425188,0.0000,03/04.9911/2017,2000,g 19.5,4.0
# From MPC106345
P/2016 WM48 (Lemmon),e,117.4955,59.9110,36.0982,8.165302,0.0422421,0.78364956,71.5448,10/14.0/2021,2000,g 15.0,4.0
# From MPEC 2021-P47
C/2016 X1 (Lemmon),e,26.4532,256.3871,224.4787,1243,0.0000225,0.99391947,0.0000,04/28.0262/2019,2000,g  6.0,4.0
# From MPC108594
C/2017 A1 (PANSTARRS),e,49.7998,121.0338,1.9644,75.35396,0.0015068,0.96964421,2.4290,10/14.0/2021,2000,g 13.0,4.0
# From MPC108594
C/2017 A3 (Elenin),e,98.5150,97.8740,303.9491,43.38290,0.0034493,0.91143927,5.9224,10/14.0/2021,2000,g  9.5,4.0
# From MPC114598
C/2017 AB5 (PANSTARRS),e,32.4503,42.6199,78.3036,2229,0.0000094,0.99586800,0.0000,02/14.6665/2018,2000,g  5.5,4.0
# From MPEC 2021-TD0
C/2017 B3 (LINEAR),h,02/02.3587/2019,54.1622,2.1770,284.8114,1.001207,3.924995,2000,6.0,4.0
# From MPC103847
P/2017 B4 (PANSTARRS),e,20.0584,121.4578,11.0197,4.410520,0.1064068,0.36495152,359.9130,01/05.0/2017,2000,g 14.5,4.0
# From MPC104793
C/2017 C1 (NEOWISE),e,65.7701,357.5912,110.0022,20.55558,0.0105757,0.92722449,18.2891,10/14.0/2021,2000,g 18.0,4.0
# From MPC107685
C/2017 C2 (PANSTARRS),e,118.5848,249.7235,138.5323,95.26232,0.0010600,0.97458535,0.0000,01/21.2081/2017,2000,g 14.0,4.0
# From MPC104793
P/2017 D1 (Fuls),e,20.7577,82.1809,7.9932,4.829349,0.0928691,0.43632987,180.0722,10/14.0/2021,2000,g 14.0,4.0
# From MPC112391
C/2017 D2 (Barros),e,31.2586,330.9435,334.5997,8774,0.0000012,0.99971568,0.0000,07/14.8427/2017,2000,g 11.0,4.0
# From MPC114598
C/2017 D3 (ATLAS),h,04/27.4824/2017,125.5900,186.7063,340.8397,1.002206,4.969008,2000,8.0,4.0
# From MPC110495
P/2017 D4 (PANSTARRS),e,10.5348,264.9374,212.2228,7.557089,0.0474430,0.62836461,88.4971,10/14.0/2021,2000,g 13.0,4.0
# From MPC104794
C/2017 D5 (PANSTARRS),e,131.0333,92.6761,287.6404,113.4962,0.0008151,0.98100888,0.0000,01/09.7412/2017,2000,g 16.0,4.0
# From MPC106346
C/2017 E1 (Borisov),h,04/10.5779/2017,14.5734,142.5579,152.7631,1.003211,0.904960,2000,14.0,4.0
# From MPEC 2021-P47
C/2017 E3 (PANSTARRS),h,06/07.5724/2017,70.6537,220.7761,334.4911,1.006184,5.937926,2000,6.5,4.0
# From MPC105239
C/2017 E4 (Lovejoy),h,04/23.5176/2017,88.0083,222.8660,87.0719,1.001490,0.491231,2000,17.0,4.0
# From MPC111769
C/2017 F1 (Lemmon),h,11/29.3822/2017,146.4591,158.7892,64.7299,1.002543,4.496462,2000,10.5,4.0
# From MPC114598
C/2017 F2 (PANSTARRS),h,11/26.5703/2017,42.5397,38.6878,134.9833,1.002656,6.929992,2000,7.5,4.0
# From MPC104794
P/2017 G1 (PANSTARRS),e,4.7770,249.6387,224.4683,7.282122,0.0501553,0.65300344,100.1203,10/14.0/2021,2000,g 13.5,4.0
# From MPC108595
P/2017 G2 (PANSTARRS),e,47.9490,79.7957,105.5146,8.060319,0.0430701,0.64774509,68.3335,10/14.0/2021,2000,g 13.0,4.0
# From MPEC 2021-P47
C/2017 G3 (PANSTARRS),e,159.0431,279.4659,73.0695,315.1832,0.0001761,0.99179925,0.0000,04/16.2594/2017,2000,g 14.0,4.0
# From MPC115882
C/2017 K1 (PANSTARRS),h,03/17.9587/2018,154.0190,225.6956,4.4369,1.003166,7.288845,2000,7.0,4.0
# From MPEC 2021-TD0
C/2017 K2 (PANSTARRS),h,12/19.7106/2022,87.5560,88.2398,236.1936,1.000635,1.797190,2000,1.5,4.0
# From MPEC 2021-N06
P/2017 K3 (Gasparovic),e,4.2730,354.2866,253.4459,5.583429,0.0747055,0.57990696,119.3534,10/14.0/2021,2000,g 14.5,4.0
# From MPC114598
C/2017 K4 (ATLAS),e,16.6766,298.8804,15.2956,28.62727,0.0064348,0.90725986,8.8443,10/14.0/2021,2000,g 10.0,4.0
# From MPEC 2021-P47
C/2017 K5 (PANSTARRS),h,03/27.0787/2020,82.2337,102.3719,172.0369,1.005762,7.681934,2000,5.0,4.0
# From MPC114599
C/2017 K6 (Jacques),e,57.2363,84.9862,303.7562,1120,0.0000263,0.99821730,0.0000,01/03.6990/2018,2000,g 11.0,4.0
# From MPEC 2021-P47
C/2017 M3 (PANSTARRS),e,77.5827,7.0331,110.3001,166.7402,0.0004578,0.97208917,0.0000,04/28.1989/2017,2000,g 10.5,4.0
# From MPEC 2021-P47
C/2017 M4 (ATLAS),h,01/17.9604/2019,105.6484,65.9066,167.6175,1.001355,3.253713,2000,6.0,4.0
# From MPC118841
C/2017 M5 (TOTAS),h,06/04.4874/2018,15.8709,216.2877,92.8085,1.005534,5.998091,2000,6.5,4.0
# From MPC114599
C/2017 O1 (ASASSN),e,39.9487,25.7338,20.8340,362.3474,0.0001429,0.99588178,0.0000,10/15.2729/2017,2000,g 11.0,4.0
# From MPC114599
P/2017 P1 (PANSTARRS),e,7.6931,221.3884,122.4591,7.903192,0.0443609,0.31102233,53.7278,10/14.0/2021,2000,g 10.0,4.0
# From MPC114599
C/2017 P2 (PANSTARRS),e,50.0486,165.4590,132.4419,2448,0.0000081,0.99899099,0.0000,12/06.4693/2017,2000,g 10.0,4.0
# From MPC114599
P/2017 R1 (PANSTARRS),e,2.5745,143.6166,178.6733,4.134951,0.1172191,0.19571242,193.0314,10/14.0/2021,2000,g 13.5,4.0
# From MPC108595
C/2017 S2 (PANSTARRS),e,12.6729,62.3638,306.0273,20.59477,0.0105455,0.82462550,15.8785,10/14.0/2021,2000,g 13.0,4.0
# From MPC114599
C/2017 S3 (PANSTARRS),h,08/16.2370/2018,99.1983,171.2941,255.8211,1.000064,0.207136,2000,11.0,4.0
# From MPC109591
C/2017 S6 (Catalina),h,02/26.1875/2018,152.8673,131.0491,134.8819,1.000728,1.547456,2000,12.5,4.0
# From MPC114599
C/2017 S7 (Lemmon),e,124.2257,262.7562,187.5320,11467,0.0000008,0.99933672,0.0000,05/24.2565/2017,2000,g  7.0,4.0
# From MPC114599
P/2017 S8 (PANSTARRS),e,29.8429,191.5409,254.7650,2.781101,0.2125098,0.39139923,288.3471,10/14.0/2021,2000,g 16.0,4.0
# From MPC107050
P/2017 S9 (PANSTARRS),e,14.1439,146.2236,237.6930,3.153707,0.1759835,0.30536220,271.7234,10/14.0/2021,2000,g 17.0,4.0
# From MPC114600
C/2017 T1 (Heinze),e,96.8637,102.3952,96.9831,12900,0.0000007,0.99995469,0.0000,02/20.8982/2018,2000,g 14.5,4.0
